     2.100          NAVIGATION                              RINEX VERSION / TYPE
fic2rin                                 03/16/2011 01:32:06 PGM / RUN BY / DATE
                                                            END OF HEADER
11 11  3 16  0  0  0.0 -.134778209031D-03 -.306954461848D-11  .000000000000D+00
     .880000000000D+02  .310312500000D+02  .608953936804D-08  .296293190916D+01
     .157579779625D-05  .116565703647D-01  .916607677937D-05  .515350017357D+04
     .259200000000D+06  .335276126862D-07  .135787849846D+00 -.156462192535D-06
     .888466194378D+00  .162437500000D+03  .914714040254D+00 -.857035698977D-08
     .503949562951D-09  .100000000000D+01  .162700000000D+04  .000000000000D+00
     .240000000000D+01  .000000000000D+00 -.116415321827D-07  .880000000000D+02
     .252006000000D+06  .400000000000D+01
12 11  3 16  0  0  0.0 -.190674327314D-04  .284217094304D-11  .000000000000D+00
     .640000000000D+02 -.767500000000D+02  .441232664826D-08  .290107013164D+01
    -.403635203838D-05  .369554152712D-02  .449270009995D-05  .515378700829D+04
     .259200000000D+06 -.115483999252D-06 -.169350900837D+01  .577419996262D-07
     .973966166492D+00  .297781250000D+03 -.263880458012D+00 -.818355516363D-08
    -.243581574722D-09  .100000000000D+01  .162700000000D+04  .000000000000D+00
     .240000000000D+01  .000000000000D+00 -.121071934700D-07  .640000000000D+02
     .252006000000D+06  .400000000000D+01
13 11  3 16  0  0  0.0  .278911087662D-03 -.147792889038D-11  .000000000000D+00
     .620000000000D+02  .443750000000D+02  .378301472060D-08 -.918781790767D+00
     .231526792049D-05  .460626685526D-02  .116303563118D-04  .515363055420D+04
     .259200000000D+06 -.484287738800D-07  .255941410208D+01  .204890966415D-07
     .990477084181D+00  .176281250000D+03  .179518156765D+01 -.765924760984D-08
    -.957182727646D-10  .100000000000D+01  .162700000000D+04  .000000000000D+00
     .240000000000D+01  .000000000000D+00 -.111758708954D-07  .620000000000D+02
     .252006000000D+06  .400000000000D+01
14 11  3 16  0  0  0.0  .137755647302D-03  .250111042988D-11  .000000000000D+00
     .770000000000D+02  .627812500000D+02  .386016079119D-08 -.942519785629D+00
     .330246984959D-05  .560487469193D-02  .117179006338D-04  .515364939117D+04
     .259200000000D+06 -.558793544769D-08  .253570108069D+01  .126659870148D-06
     .983537253897D+00  .166875000000D+03 -.208952322482D+01 -.772925052574D-08
    -.171078554680D-09  .100000000000D+01  .162700000000D+04  .000000000000D+00
     .240000000000D+01  .000000000000D+00 -.884756445885D-08  .770000000000D+02
     .252006000000D+06  .400000000000D+01
15 11  3 16  0  0  0.0 -.143088866025D-03  .318323145621D-11  .000000000000D+00
     .910000000000D+02  .437500000000D+02  .465126517244D-08 -.133331057701D+01
     .205822288990D-05  .338571297470D-02  .104513019323D-04  .515358571815D+04
     .259200000000D+06  .372529029846D-08  .246227386343D+01 -.558793544769D-07
     .950730429441D+00  .172875000000D+03 -.789310193595D-01 -.805676416800D-08
    -.163578242262D-09  .100000000000D+01  .162700000000D+04  .000000000000D+00
     .240000000000D+01  .000000000000D+00 -.977888703346D-08  .910000000000D+02
     .252006000000D+06  .400000000000D+01
16 11  3 16  0  0  0.0 -.157945323735D-03 -.284217094304D-11  .000000000000D+00
     .810000000000D+02 -.929062500000D+02  .446018578464D-08  .526953389632D+00
    -.489875674248D-05  .628430023789D-02  .379234552383D-05  .515376682663D+04
     .259200000000D+06  .126659870148D-06 -.167574032346D+01  .298023223877D-07
     .975016326624D+00  .310375000000D+03 -.158493456106D+00 -.837927760197D-08
    -.343228582562D-09  .100000000000D+01  .162700000000D+04  .000000000000D+00
     .240000000000D+01  .000000000000D+00 -.977888703346D-08  .810000000000D+02
     .252006000000D+06  .400000000000D+01
17 11  3 16  0  0  0.0  .183929689229D-03  .341060513165D-12  .000000000000D+00
     .580000000000D+02 -.576562500000D+02  .433732352408D-08 -.554953284718D+00
    -.300817191601D-05  .617731688544D-02  .109039247036D-04  .515373516464D+04
     .259200000000D+06  .819563865662D-07 -.632670377581D+00  .838190317154D-07
     .961224110522D+00  .172406250000D+03 -.242745914587D+01 -.800676208521D-08
     .303584074067D-10  .100000000000D+01  .162700000000D+04  .000000000000D+00
     .240000000000D+01  .000000000000D+00 -.102445483208D-07  .580000000000D+02
     .252006000000D+06  .400000000000D+01
19 11  3 16  0  0  0.0 -.120574608445D-03 -.375166564481D-11  .000000000000D+00
     .380000000000D+02 -.623125000000D+02  .424160525131D-08 -.125307311328D+01
    -.325404107571D-05  .709964951966D-02  .119768083096D-04  .515363831902D+04
     .259200000000D+06 -.130385160446D-07 -.578441064998D+00 -.132247805595D-06
     .958793442875D+00  .148625000000D+03 -.102997186246D-01 -.782425448303D-08
     .188222125921D-09  .100000000000D+01  .162700000000D+04  .000000000000D+00
     .240000000000D+01  .000000000000D+00 -.149011611938D-07  .380000000000D+02
     .252006000000D+06  .400000000000D+01
20 11  3 16  0  0  0.0  .487100332975D-04  .000000000000D+00  .000000000000D+00
     .650000000000D+02 -.188125000000D+02  .552237288614D-08  .117647545704D+01
    -.105053186417D-05  .470977218356D-02  .582262873650D-05  .515369863319D+04
     .259200000000D+06 -.633299350739D-07  .139648106349D+01 -.316649675369D-07
     .933620650145D+00  .251687500000D+03  .128075396642D+01 -.867107547081D-08
    -.312870175156D-09  .100000000000D+01  .162700000000D+04  .000000000000D+00
     .240000000000D+01  .000000000000D+00 -.791624188423D-08  .650000000000D+02
     .252006000000D+06  .400000000000D+01
21 11  3 16  0  0  0.0 -.130650587380D-03 -.261479726760D-11  .000000000000D+00
     .850000000000D+02  .371250000000D+02  .537665253059D-08  .208256340230D+01
     .176951289177D-05  .174354674527D-01  .806152820587D-05  .515377694511D+04
     .259200000000D+06 -.335276126862D-06  .395543127570D+00 -.236555933952D-06
     .932218004290D+00  .210843750000D+03 -.239365312935D+01 -.840034990829D-08
     .445375694543D-09  .100000000000D+01  .162700000000D+04  .000000000000D+00
     .240000000000D+01  .000000000000D+00 -.116415321827D-07  .850000000000D+02
     .252006000000D+06  .400000000000D+01
22 11  3 16  0  0  0.0  .151693820953D-03 -.682121026330D-12  .000000000000D+00
     .700000000000D+02 -.135312500000D+02  .558201822775D-08 -.454282730699D-02
    -.715255737305D-06  .540871429257D-02  .643357634544D-05  .515370490074D+04
     .259200000000D+06 -.298023223877D-07  .145473076607D+01  .484287738800D-07
     .931192138839D+00  .240437500000D+03 -.196474178690D+01 -.868786188432D-08
    -.368229623956D-09  .100000000000D+01  .162700000000D+04  .000000000000D+00
     .240000000000D+01  .000000000000D+00 -.172294676304D-07  .700000000000D+02
     .252006000000D+06  .400000000000D+01
23 11  3 16  0  0  0.0  .319856218994D-03 -.250111042988D-11  .000000000000D+00
     .300000000000D+02  .449062500000D+02  .424624830186D-08 -.168770272309D+01
     .212341547012D-05  .703890051227D-02  .118073076010D-04  .515358385468D+04
     .259200000000D+06  .186264514923D-08  .249154168863D+01 -.875443220139D-07
     .965198673153D+00  .155437500000D+03  .312911921571D+01 -.786247036059D-08
    -.907180644858D-10  .100000000000D+01  .162700000000D+04  .000000000000D+00
     .240000000000D+01  .000000000000D+00 -.200234353542D-07  .300000000000D+02
     .252006000000D+06  .400000000000D+01
24 11  3 16  0  0  0.0  .373600516468D-03  .318323145621D-11  .000000000000D+00
     .320000000000D+02  .420937500000D+02  .493591988659D-08 -.239483419871D+01
     .226311385632D-05  .594279752113D-02  .781565904617D-05  .515371934128D+04
     .259200000000D+06 -.115483999252D-06  .439100581502D+00  .149011611938D-07
     .948796024569D+00  .224406250000D+03 -.303987789352D+00 -.820534178542D-08
     .492520515456D-09  .100000000000D+01  .162700000000D+04  .000000000000D+00
     .240000000000D+01  .000000000000D+00 -.139698386192D-08  .320000000000D+02
     .252006000000D+06  .400000000000D+01
25 11  3 16  0  0  0.0 -.710031017661D-04 -.795807864051D-12  .000000000000D+00
     .530000000000D+02 -.854062500000D+02  .472912555849D-08  .114222369669D+01
    -.439397990704D-05  .519289984368D-03  .402331352234D-05  .515368834877D+04
     .259200000000D+06 -.745058059692D-08 -.172250109839D+01  .949949026108D-07
     .962738859789D+00  .300750000000D+03  .884008394795D+00 -.846535261592D-08
    -.246795994329D-09  .100000000000D+01  .162700000000D+04  .000000000000D+00
     .240000000000D+01  .000000000000D+00  .465661287308D-08  .530000000000D+02
     .252006000000D+06  .400000000000D+01
26 11  3 16  0  0  0.0 -.146173406392D-03 -.101181285572D-10  .000000000000D+00
     .300000000000D+02  .591875000000D+02  .372086927485D-08 -.200930334977D+01
     .294111669064D-05  .203778577270D-01  .104736536741D-04  .515364746666D+04
     .259200000000D+06  .312924385071D-06  .255492684956D+01 -.484287738800D-07
     .988124666559D+00  .187250000000D+03  .112833435015D+01 -.734066291093D-08
    -.250010413937D-11  .100000000000D+01  .162700000000D+04  .000000000000D+00
     .240000000000D+01  .000000000000D+00 -.651925802231D-08  .300000000000D+02
     .252006000000D+06  .400000000000D+01
27 11  3 16  0  0  0.0  .245965085924D-03  .363797880709D-11  .000000000000D+00
     .310000000000D+02  .750937500000D+02  .434910972931D-08 -.998212839914D+00
     .406056642532D-05  .217383754207D-01  .613741576672D-05  .515369788551D+04
     .259200000000D+06 -.327825546265D-06 -.280295347710D+01  .484287738800D-07
     .980822415876D+00  .280750000000D+03 -.127840887363D+01 -.842820821156D-08
     .412160025262D-09  .100000000000D+01  .162700000000D+04  .000000000000D+00
     .240000000000D+01  .000000000000D+00 -.419095158577D-08  .310000000000D+02
     .252006000000D+06  .400000000000D+01
